INTERCOSMOS 24          
1 20261U 89080A   25170.67114805  .00001152  00000+0  33582-3 0  9995
2 20261  82.6056 275.4309 1190508 182.8636 176.5205 12.59040663633697
SL-14 R/B               
1 20262U 89080C   25171.18569169  .00000313  00000+0  85282-4 0  9993
2 20262  82.5940 341.7489 1231626  64.7703 307.5865 12.50310666626925
DELTA 1 R/B             
1 20323U 89089B   25171.14230482  .00000230  00000+0  66162-4 0  9993
2 20323  97.1043  54.9654 0067954 231.0938 128.4188 14.50400952878203
ARIANE 40 R/B           
1 20443U 90005H   25170.76801978  .00000206  00000+0  79437-4 0  9999
2 20443  98.3457 233.6801 0008836 276.0647  83.9535 14.39642555854971
DELTA 2 R/B(1)          
1 20453U 90008B   25171.06105079  .00025715  00000+0  57912-3 0  9991
2 20453  35.6097  63.1987 0138719  27.2766 333.5165 15.32772742885567
COSMOS 2058             
1 20465U 90010A   25170.76806332  .00002888  00000+0  18129-3 0  9996
2 20465  82.4759 305.7947 0010257 158.4886 201.6776 15.08901060902565
SL-14 R/B               
1 20466U 90010B   25170.41419138  .00000412  00000+0  47207-4 0  9994
2 20466  82.5018 154.5903 0021537  87.7941 272.5740 14.83263474889458
SL-14 R/B               
1 20511U 90018B   25170.58454563  .00000359  00000+0  42384-4 0  9993
2 20511  82.5215 108.9729 0015078 234.9711 125.0089 14.81849664904704
HST                     
1 20580U 90037B   25170.85915241  .00004909  00000+0  18095-3 0  9991
2 20580  28.4692  26.8031 0002532 117.2583 242.8270 15.25351516733098
SL-16 R/B               
1 20625U 90046B   25170.86057628  .00000174  00000+0  11459-3 0  9995
2 20625  70.9978 129.8776 0014821 336.1509  23.8925 14.14963639811218
COSMOS 2084             
1 20663U 90055A   25170.67259315  .00001792  00000+0  13997-3 0  9999
2 20663  62.7879 151.2245 0060606 154.7935 205.6144 15.03700116896740
SL-6 R/B(2)             
1 20666U 90055D   25170.13110746  .00001448  00000+0  12417-3 0  9991
2 20666  62.7835  68.9443 0026188 191.9315 168.1167 15.02043249898589
SL-8 R/B                
1 20775U 90078B   25170.59327909  .00010583  00000+0  34999-3 0  9997
2 20775  82.9072 125.8459 0401997 171.5707 189.2544 14.78421953770295
SL-8 R/B                
1 21088U 91006B   25170.52404775  .00000126  00000+0  11089-3 0  9994
2 21088  82.9424   5.8170 0023640  54.4267 329.0462 13.77458520728111
OKEAN-3                 
1 21397U 91039A   25170.56377399  .00002082  00000+0  15322-3 0  9995
2 21397  82.5168 231.3375 0015929 141.3137 218.9232 15.02790008846573
COSMOS 2151             
1 21422U 91042A   25170.42057623  .00001607  00000+0  13084-3 0  9993
2 21422  82.4968 337.3010 0011456 224.5835 135.4468 14.98859134823740
SL-14 R/B               
1 21423U 91042B   25170.78612642  .00000367  00000+0  43675-4 0  9993
2 21423  82.4934 106.6859 0017902  29.7690 330.4538 14.81548421814143
ERS-1                   
1 21574U 91050A   25170.57447620  .00000249  00000+0  95090-4 0  9995
2 21574  98.7910 177.1584 0030854 262.4916  97.2765 14.39201504777868
ARIANE 40 R/B           
1 21610U 91050F   25171.11198601  .00000240  00000+0  84697-4 0  9991
2 21610  98.2389 227.6247 0004053 134.4418 225.7105 14.42640716781405
INTERCOSMOS 25          
1 21819U 91086A   25170.87784467  .00002318  00000+0  46094-3 0  9990
2 21819  82.6042 108.8164 1489664 323.1855  27.5354 12.11072416464867
SL-8 R/B                
1 21876U 92008B   25170.76839990  .00000046  00000+0  31462-4 0  9998
2 21876  82.9269 103.3156 0035364 146.9334 249.6771 13.75933864673261
SL-8 R/B                
1 21938U 92020B   25170.65961234  .00000157  00000+0  14735-3 0  9992
2 21938  82.9304 349.1068 0028038 314.0057  92.1019 13.75509982664976
USA 81                  
1 21949U 92023A   25170.56260772  .00000152  00000+0  49180-4 0  9994
2 21949  85.0076 283.2078 0002447 109.3459 250.7998 14.32246433 57128
COSMOS 2219             
1 22219U 92076A   25170.36906985  .00000085  00000+0  69246-4 0  9994
2 22219  71.0579 208.5024 0020007 244.5987 115.3065 14.14023246681155
SL-16 R/B               
1 22220U 92076B   25171.08187635  .00000265  00000+0  15610-3 0  9994
2 22220  71.0006  21.5309 0011469 143.0582  27.6758 14.16807069684968
COSMOS 2221             
1 22236U 92080A   25170.41733686  .00001586  00000+0  14286-3 0  9990
2 22236  82.5038 170.9287 0014651   3.9221 356.2112 14.94896110741444
SL-16 R/B               
1 22285U 92093B   25170.34683682 -.00000161  00000+0 -58115-4 0  9990
2 22285  71.0196 197.0699 0005156 323.2900  36.7869 14.15395236675895
COSMOS 2228             
1 22286U 92094A   25171.13134872  .00001697  00000+0  14940-3 0  9992
2 22286  82.5183 128.3924 0020277 104.3419 256.0056 14.95735555757864
SL-16 R/B               
1 22566U 93016B   25171.06797762 -.00000099  00000+0 -26425-4 0  9992
2 22566  71.0077  46.7464 0010350 351.0871   9.0066 14.15256659665024
COSMOS 2242             
1 22626U 93024A   25170.67423880  .00001575  00000+0  14056-3 0  9995
2 22626  82.5187 157.9603 0018466 108.1172 252.2062 14.95184120741070
SL-16 R/B               
1 22803U 93059B   25170.34486899  .00000221  00000+0  13309-3 0  9990
2 22803  70.9888 206.4445 0019330 253.7028 106.1970 14.17176718642228
ARIANE 40 R/B           
1 22830U 93061H   25170.83777554  .00000144  00000+0  68872-4 0  9998
2 22830  98.5266 239.3642 0010288 348.6688  11.4263 14.32666790656462
COSMOS 2278             
1 23087U 94023A   25170.99291751  .00000261  00000+0  16114-3 0  9990
2 23087  71.0544   4.6750 0007076  64.3345 295.8507 14.14305640607917
SL-16 R/B               
1 23088U 94023B   25170.38348821 -.00000030  00000+0  89420-5 0  9992
2 23088  70.9996 263.8315 0004494 310.8664  49.2069 14.14964143608843
SL-16 R/B               
1 23343U 94074B   25170.73723067  .00000367  00000+0  56360-4 0  9998
2 23343  97.7385 206.8008 0006729  10.7156 125.3375 14.79048636648376
SL-16 R/B               
1 23405U 94077B   25170.39706845 -.00000263  00000+0 -11014-3 0  9990
2 23405  70.9809 186.3853 0004195 236.1377 123.9347 14.15520192578976
ARIANE 40+ R/B          
1 23561U 95021B   25170.83686763  .00000216  00000+0  83123-4 0  9995
2 23561  98.4832 240.3573 0006370 199.1938 295.9544 14.39536600581428
SL-16 R/B               
1 23705U 95058B   25170.53232030  .00000219  00000+0  13627-3 0  9990
2 23705  71.0215  12.7313 0012173 170.0077 190.1290 14.15449155530614
SL-16 R/B               
1 24298U 96051B   25170.99164591 -.00000162  00000+0 -61240-4 0  9992
2 24298  70.7680  11.2120 0015321 171.3350 188.8037 14.12414454484814
ORBVIEW 2 (SEASTAR)     
1 24883U 97037A   25170.40859495  .00000252  00000+0  10418-3 0  9995
2 24883  98.8266 323.2693 0003304 108.7456 251.4087 14.35256961470702
SL-16 R/B               
1 25400U 98043G   25170.75163570  .00000041  00000+0  35826-4 0  9996
2 25400  98.7880 117.8682 0010830  60.3860 299.8397 14.25973800401518
SL-16 R/B               
1 25407U 98045B   25170.74279391  .00000289  00000+0  17008-3 0  9998
2 25407  71.0116  14.5246 0005616  57.9873 302.1795 14.16142678389877
ISS (ZARYA)             
1 25544U 98067A   25171.16414757  .00011840  00000+0  21409-3 0  9993
2 25544  51.6359 292.3218 0002101 262.4081  97.6669 15.50136952515624
CZ-4B R/B               
1 25732U 99025C   25170.59597766  .00000038  00000+0  39455-4 0  9993
2 25732  98.6990 215.5396 0037526  22.9616 101.4939 14.18193168350874
OKEAN-O                 
1 25860U 99039A   25171.13744670  .00000505  00000+0  74073-4 0  9993
2 25860  97.9830 228.1165 0001980  96.2998 263.8439 14.79811699395642
SL-16 R/B               
1 25861U 99039B   25171.16990843  .00000424  00000+0  61288-4 0  9996
2 25861  98.0355 225.0540 0015625  33.5592 326.6607 14.81290132398122
DELTA 2 R/B             
1 25876U 99041E   25170.28238521  .00000438  00000+0  10933-3 0  9990
2 25876  51.7658 272.4234 0506301 291.6284  63.1450 14.10747006325833
HELIOS 1B               
1 25977U 99064A   25170.41283415  .00001130  00000+0  13431-3 0  9990
2 25977  98.1952  59.8331 0001382 133.2241 226.9089 14.86499111646135
TERRA                   
1 25994U 99068A   25171.18353381  .00000336  00000+0  78086-4 0  9993
2 25994  97.9977 229.0446 0001012 319.5592 125.0422 14.60714450356871
SL-16 R/B               
1 26070U 00006B   25170.69014924 -.00000233  00000+0 -94076-4 0  9990
2 26070  71.0031 290.8079 0018166 227.4656 132.4934 14.15777559311336
TITAN 4B R/B            
1 26474U 00047B   25170.69655486  .00002476  00000+0  16898-3 0  9991
2 26474  67.9906  58.5792 0045401 330.5030  29.3556 15.07236494353255
ENVISAT                 
1 27386U 02009A   25170.65527801  .00000082  00000+0  40249-4 0  9998
2 27386  98.3340 126.1553 0001350  89.0432  83.8370 14.38921892221341
IDEFIX & ARIANE 42P R/B 
1 27422U 02021B   25170.36464427  .00000196  00000+0  91259-4 0  9998
2 27422  98.5612 107.5911 0010712 240.7989 119.2123 14.30797441206360
AQUA                    
1 27424U 02022A   25171.16385947  .00000692  00000+0  15008-3 0  9997
2 27424  98.3780 129.5517 0001919  65.4130  60.7398 14.61311778230428
CZ-4B R/B               
1 27432U 02024C   25171.14275087  .00000019  00000+0  32814-4 0  9997
2 27432  98.9229 220.2522 0050966  49.1195 331.7102 14.14487620192207
MIDORI II (ADEOS-II)    
1 27597U 02056A   25170.77297075  .00000249  00000+0  11626-3 0  9995
2 27597  98.7382 123.1046 0002092  66.3179 293.8222 14.29054298172744
H-2A R/B                
1 27601U 02056E   25170.85853034  .00000186  00000+0  80145-4 0  9996
2 27601  98.2793 136.9165 0069488 224.3503 160.2944 14.33514026176459
CZ-4B R/B               
1 28059U 03049C   25170.65913399  .00000306  00000+0  82431-4 0  9990
2 28059  98.6591 150.7633 0047614 315.5673  44.1707 14.54691408148357
CZ-2C R/B               
1 28222U 04012C   25170.95971958  .00015190  00000+0  32547-3 0  9990
2 28222  97.7659 210.5691 0023509 182.2745 177.8399 15.44569039163531
